satname,norad_id,inclination_deg,eccentricity,mean_motion_rev_per_day,perigee_km,apogee_km,l1,l2
STARLINK-1284,45390,53.0557,0.000127,15.07480549,543.0227102907375,544.7809081482792,1 45390U 20019AG  26004.85958504  .00130891  00000+0  83957-2 0  9994,2 45390  53.0557  73.1536 0001270 115.8970 244.2150 15.07480549320381
STARLINK-1297,45395,53.0567,0.0001747,15.06369058,546.0965173744517,548.516267295734,1 45395U 20019AM  26004.49959263 -.00004955  00000+0 -31425-3 0  9999,2 45395  53.0567  74.7821 0001747  97.7499 262.3689 15.06369058319515
STARLINK-1307,45397,53.0543,0.0001151,15.09261508,537.6592077199857,539.2514072691711,1 45397U 20019AP  26004.91668980  .00016233  00000+0  10238-2 0  9999,2 45397  53.0543  72.8914 0001151  81.5730  70.1412 15.09261508  5785
STARLINK-1255,45399,53.0467,0.00036,15.41409185,439.4942174262669,444.40467966922097,1 45399U 20019AR  26004.36840338  .00075995  00000+0  17821-2 0  9994,2 45399  53.0467  49.5934 0003600  35.4618 324.6625 15.41409185320480
STARLINK-1260,45404,53.0536,0.0001819,15.06381684,546.0079632951702,548.527425522996,1 45404U 20019AW  26004.42678196 -.00001571  00000+0 -86641-4 0  9998,2 45404  53.0536  65.1034 0001819  88.8389 271.2808 15.06381684320176
STARLINK-1263,45405,53.0535,0.000168,15.0638693,546.0881506080113,548.4150811829513,1 45405U 20019AX  26004.47838331  .00000786  00000+0  71675-4 0  9999,2 45405  53.0535  64.8657 0001680 100.5382 259.5796 15.06386930320189
STARLINK-1265,45406,53.0539,0.000142,15.06378005,546.2955611978805,548.2623793334369,1 45406U 20019AY  26004.48575693 -.00000903  00000+0 -41787-4 0  9994,2 45406  53.0539  64.8439 0001420  82.0253 278.0897 15.06378005320187
STARLINK-1278,45408,53.0511,0.0003713,15.43699604,432.6719177782479,437.7315031046219,1 45408U 20019BA  26004.40140475  .00076617  00000+0  16639-2 0  9993,2 45408  53.0511  78.5588 0003713 272.8111  87.2469 15.43699604319999
STARLINK-1296,45412,53.0554,0.0001337,15.06379686,546.347890695798,548.1997455485634,1 45412U 20019BE  26004.42309574 -.00002879  00000+0 -17456-3 0  9997,2 45412  53.0554  65.1214 0001337  93.7624 266.3518 15.06379686320179
STARLINK-1298,45413,53.0426,0.0005543,15.67856016,361.2996287263977,368.7751118332899,1 45413U 20019BF  26004.91668980  .00210390  00000+0  18308-2 0  9994,2 45413  53.0426  14.4183 0005543  81.4532  58.6317 15.67856016  5998
STARLINK-1309,45414,53.0546,0.0001212,15.06391198,546.3991794170797,548.077890446747,1 45414U 20019BG  26004.43783642  .00003210  00000+0  23432-3 0  9991,2 45414  53.0546  65.0584 0001212  92.8684 267.2444 15.06391198320168
STARLINK-1316,45415,53.0551,0.0001508,15.0642232,546.0988189507852,548.1874834443861,1 45415U 20019BH  26004.59631594  .00002422  00000+0  18130-3 0  9990,2 45415  53.0551  64.3442 0001508 101.3309 258.7849 15.06422320320221
STARLINK-1318,45416,53.0445,0.0004773,15.74918171,341.6551570173615,348.072933815316,1 45416U 20019BJ  26004.91668980  .00146961  00000+0  95901-3 0  9994,2 45416  53.0445   2.5657 0004773  65.8985  26.7566 15.74918171  5955
STARLINK-1286,45417,53.0519,0.0001823,15.4407675,432.8503417781367,435.3340805485277,1 45417U 20019BK  26004.49428673  .00029826  00000+0  64905-3 0  9991,2 45417  53.0519  77.8242 0001823 297.8353  62.2468 15.44076750320289
STARLINK-1308,45419,53.0538,0.000132,15.08927185,538.5637870930359,540.3900371658392,1 45419U 20019BM  26004.91668980  .01072523  00000+0  62113-1 0  9997,2 45419  53.0538  92.8873 0001320  97.5164  25.5680 15.08927185  5786
STARLINK-1329,45531,53.055,0.0003937,15.44200456,431.04655614932835,436.41021895548784,1 45531U 20025A   26004.91668980  .00147920  00000+0  31211-2 0  9998,2 45531  53.0550  27.1996 0003937  37.6508 287.1666 15.44200456  5803
STARLINK-1338,45532,53.0545,0.0001669,15.42143517,438.6463238518354,440.9221459600467,1 45532U 20025B   26004.91668980  .00139922  00000+0  31680-2 0  9992,2 45532  53.0545  29.9700 0001669  72.6405 216.9487 15.42143517  5731
STARLINK-1350,45535,53.0751,0.0002115,15.34316082,461.5057830902497,464.39956402216376,1 45535U 20025E   26004.60121609  .00015336  00000+0  46529-3 0  9994,2 45535  53.0751 333.7133 0002115  91.9600 268.1644 15.34316082316310
STARLINK-1362,45538,53.0557,0.000158,15.0638801,546.1540949268256,548.3425166834613,1 45538U 20025H   26004.77504936  .00001753  00000+0  13659-3 0  9999,2 45538  53.0557  33.2647 0001580 102.7661 257.3504 15.06388010315461
STARLINK-1368,45540,53.0561,0.0001649,15.06370871,546.1588308674709,548.4428402656404,1 45540U 20025K   26004.77972428 -.00003411  00000+0 -21040-3 0  9995,2 45540  53.0561  33.5221 0001649  96.6388 263.4788 15.06370871315450
STARLINK-1371,45542,53.0565,0.000119,15.30759815,472.72872211610866,474.35942221128334,1 45542U 20025M   26004.91668980  .01103866  00000+0  33897-1 0  9993,2 45542  53.0565  31.8352 0001190  89.7178 283.6615 15.30759815  5830
STARLINK-1372,45543,53.057,0.000152,15.06380061,546.2200065059442,548.3253310452519,1 45543U 20025N   26004.45535899 -.00000609  00000+0 -22010-4 0  9995,2 45543  53.0570  34.9783 0001520  92.2729 267.8434 15.06380061314503
STARLINK-1373,45544,53.0555,0.0001094,15.26116633,486.68335079055487,488.1855378225682,1 45544U 20025P   26004.91668980  .02006253  00000+0  69198-1 0  9991,2 45544  53.0555  32.1896 0001094  72.8923 179.9686 15.26116633  5781
STARLINK-1294,45551,53.0414,0.0003333,15.73944545,345.39457921589747,349.8779796839799,1 45551U 20025W   26004.91668980  .00087546  00000+0  60196-3 0  9992,2 45551  53.0414 298.0739 0003333 149.8616 286.1660 15.73944545  5960
STARLINK-1325,45554,53.0459,0.0009529,15.88393237,300.4171555696248,313.157284147831,1 45554U 20025Z   26004.91668980  .00279207  00000+0  95552-3 0  9996,2 45554  53.0459 287.2525 0009529 117.7387 200.0651 15.88393237  5885
STARLINK-1327,45555,53.0535,0.0001601,15.34744904,460.58325038953717,462.77335925013995,1 45555U 20025AA  26004.91668980  .01771722  00000+0  46681-1 0  9994,2 45555  53.0535  11.4435 0001601 103.9161 321.4670 15.34744904  5788
STARLINK-1356,45564,53.0575,0.0001235,15.06387022,546.3960484654299,548.1066193839088,1 45564U 20025AK  26004.71521212 -.00003376  00000+0 -20791-3 0  9998,2 45564  53.0575  13.8100 0001235  92.8127 267.3004 15.06387022315728
STARLINK-1357,45565,53.0593,0.0003648,15.43824901,432.3476864278409,437.31842938208956,1 45565U 20025AL  26004.91668980  .00141418  00000+0  30251-2 0  9994,2 45565  53.0593 343.5630 0003648  60.4172 350.8599 15.43824901  5929
STARLINK-1361,45567,53.0566,0.0001287,15.06393032,546.3416188290976,548.1242090449459,1 45567U 20025AN  26004.46824560 -.00000548  00000+0 -17911-4 0  9994,2 45567  53.0566  14.9199 0001287  82.2375 277.8760 15.06393032315695
STARLINK-1363,45568,53.0509,0.0008367,15.53425594,401.05619740286147,412.40999902521344,1 45568U 20025AP  26004.26200825  .00040169  00000+0  62673-3 0  9990,2 45568  53.0509 354.6572 0008367   3.7811 356.3260 15.53425594315959
STARLINK-1366,45569,53.0503,0.0009908,15.52015664,404.115103771579,417.5681438124857,1 45569U 20025AQ  26004.91668980  .00168064  00000+0  26893-2 0  9991,2 45569  53.0503 352.0612 0009908  28.6370  52.4696 15.52015664  5741
STARLINK-1376,45570,53.0622,0.0001058,15.08883789,538.8776491614435,540.3414443307347,1 45570U 20025AR  26004.91668980  .01533987  00000+0  88701-1 0  9999,2 45570  53.0622  12.8944 0001058 110.3324 189.4862 15.08883789  5489
STARLINK-1320,45572,53.0557,0.0007173,15.54848125,397.7303287348295,407.4579656385831,1 45572U 20025AT  26004.91668980  .00081077  00000+0  11883-2 0  9996,2 45572  53.0557 297.1076 0007173 118.4747 132.5795 15.54848125  5901
STARLINK-1321,45573,53.0549,0.000119,15.34592391,461.3174814043632,462.9454653010216,1 45573U 20025AU  26004.91668980  .01677620  00000+0  44665-1 0  9996,2 45573  53.0549   1.2808 0001190 107.0833  18.1112 15.34592391  5780
STARLINK-1328,45576,53.0456,0.0002472,16.05900031,256.4740260410217,259.75498878628787,1 45576U 20025AX  26004.54535964  .00643036  21436-3  86676-3 0  9996,2 45576  53.0456 304.9725 0002472 169.1120 190.9966 16.05900031316686
STARLINK-1331,45578,53.0573,0.0001333,15.06377498,546.3573660299135,548.2036823418612,1 45578U 20025AZ  26004.69402286 -.00000898  00000+0 -41420-4 0  9998,2 45578  53.0573   3.9052 0001333  86.5459 273.5683 15.06377498315878
STARLINK-1333,45580,53.0562,0.0001426,15.06390642,546.2526802146722,548.2277978032371,1 45580U 20025BB  26004.43507668 -.00001090  00000+0 -54328-4 0  9999,2 45580  53.0562  15.0652 0001426 104.2004 255.9144 15.06390642315687
STARLINK-1335,45581,53.0559,0.0001235,15.06383161,546.4078806080834,548.1184544494636,1 45581U 20025BC  26004.37333722 -.00000385  00000+0 -69465-5 0  9996,2 45581  53.0559   5.3474 0001235  87.0567 273.0564 15.06383161315818
STARLINK-1337,45582,53.0558,0.0001716,15.06403966,546.0110150194432,548.387790472867,1 45582U 20025BD  26004.72719094  .00003877  00000+0  27898-3 0  9995,2 45582  53.0558   3.7601 0001716  85.8342 274.2843 15.06403966315867
STARLINK-1347,45586,53.0524,0.0004281,15.42544033,435.6857712112669,441.5222648709141,1 45586U 20025BH  26004.91668980  .00129304  00000+0  28928-2 0  9995,2 45586  53.0524 334.4949 0004281  72.5061  98.3793 15.42544033  5927
STARLINK-1364,45589,53.0571,0.0001434,15.06398237,546.2238655265801,548.2100570426765,1 45589U 20025BL  26004.39913132 -.00000415  00000+0 -89776-5 0  9996,2 45589  53.0571   5.2306 0001434  88.7584 271.3569 15.06398237315817
STARLINK-1365,45590,53.0566,0.0001086,15.06408925,546.432114350986,547.9362941165446,1 45590U 20025BM  26004.34843544  .00001122  00000+0  94187-4 0  9997,2 45590  53.0566  35.4555 0001086  77.5004 282.6106 15.06408925315403
STARLINK-1443,45660,53.0561,0.0001217,15.06385062,546.4145206438307,548.100161626463,1 45660U 20035D   26004.66544890  .00001031  00000+0  88140-4 0  9994,2 45660  53.0561 354.0350 0001217  92.7232 267.3896 15.06385062309086
